STARLINK-2336           
1 47879U 21021V   26166.30810150  .00064140  00000+0  98945-3 0  9992
2 47879  53.1526 175.5846 0005290   3.3271 356.7774 15.53558699291352
STARLINK-2342           
1 47883U 21021Z   26166.25002315  .00043139  00000+0  22396-3 0  9999
2 47883  53.1531 157.7860 0001630  94.1709 100.0618 15.80582814  5883
STARLINK-2343           
1 47884U 21021AA  26166.26997749  .00006063  00000+0  20696-3 0  9991
2 47884  53.1564 187.0737 0001144  89.0064 271.1068 15.31703132291000
STARLINK-2346           
1 47887U 21021AD  26166.28395675  .00000066  00000+0  13886-4 0  9997
2 47887  53.1570 186.9679 0001340  95.7753 264.3401 15.31703485291017
STARLINK-2354           
1 47894U 21021AL  26166.23803761  .00035869  00000+0  10804-2 0  9994
2 47894  53.1497 174.0402 0001613  53.9076 306.2076 15.34024381291133
STARLINK-2355           
1 47895U 21021AM  26166.27158312  .00004706  00000+0  16342-3 0  9994
2 47895  53.1576 174.2035 0000967  86.4761 273.6351 15.31677378291173
STARLINK-2356           
1 47896U 21021AN  26166.30726277 -.00000901  00000+0 -17284-4 0  9992
2 47896  53.1594 186.8436 0001280 100.8721 259.2425 15.31697482290971
STARLINK-2358           
1 47898U 21021AQ  26166.25757829  .00000287  00000+0  21005-4 0  9996
2 47898  53.1594 174.1982 0001434  90.5933 269.5233 15.31705241291144
STARLINK-2361           
1 47901U 21021AT  26166.23232167  .00035400  00000+0  91564-3 0  9993
2 47901  53.1561 159.5375 0005287  22.5838 337.5398 15.38770395291399
STARLINK-2363           
1 47903U 21021AV  26166.25002315  .00315885  49827-4  84088-3 0  9993
2 47903  53.1493 127.1573 0002132 164.7924 112.2355 15.94103701  5967
STARLINK-2364           
1 47904U 21021AW  26166.22656279 -.00000608  00000+0 -78229-5 0  9998
2 47904  53.1593 161.5154 0001299 125.7303 234.3819 15.31698663291355
STARLINK-2367           
1 47907U 21021AZ  26166.29329669 -.00000114  00000+0  80846-5 0  9997
2 47907  53.1607 187.0606 0001429  91.4991 268.6174 15.31704382290973
STARLINK-2370           
1 47910U 21021BC  26166.24826850 -.00004846  00000+0 -14439-3 0  9990
2 47910  53.1577 174.2775 0001053  81.6816 278.4305 15.31722709291203
STARLINK-2371           
1 47911U 21021BD  26166.28863236  .00003703  00000+0  13106-3 0  9993
2 47911  53.1589 186.9524 0001422  97.1258 262.9905 15.31696827290867
STARLINK-2378           
1 47916U 21021BJ  26166.23123868  .00000603  00000+0  31202-4 0  9997
2 47916  53.1581 161.6566 0001364  99.8187 260.2969 15.31693654291356
STARLINK-2405           
1 47919U 21021BM  26166.32589408  .00000270  00000+0  20446-4 0  9994
2 47919  53.1581 186.7554 0001142  78.3459 281.7671 15.31706558291000
STARLINK-1647           
1 47978U 21024B   26165.93336747  .00000935  00000+0  41923-4 0  9995
2 47978  53.1601 240.0048 0001380  81.5414 278.5743 15.31688149289524
STARLINK-2303           
1 47981U 21024E   26165.92837043  .00000848  00000+0  39102-4 0  9992
2 47981  53.1597 240.0922 0001369  97.8301 262.2856 15.31691972289528
STARLINK-2273           
1 47993U 21024S   26166.29306194  .00059238  00000+0  10653-2 0  9999
2 47993  53.1490 194.5372 0005957 358.9541   1.1455 15.49287859290182
STARLINK-2266           
1 47997U 21024W   26165.41854102  .00001174  00000+0  49577-4 0  9998
2 47997  53.1592 216.7884 0001176  74.2426 285.8705 15.31698202289808
STARLINK-2270           
1 48000U 21024Z   26166.20086921  .00047119  00000+0  10712-2 0  9994
2 48000  53.1261 144.4970 0005644  30.9380 329.1957 15.42544372290827
STARLINK-2153           
1 48009U 21024AJ  26166.31908869  .00000322  00000+0  22141-4 0  9995
2 48009  53.1593 215.2319 0001273  79.9655 280.1490 15.31701426289852
STARLINK-2226           
1 48010U 21024AK  26165.93804986 -.00002073  00000+0 -55042-4 0  9992
2 48010  53.1611 240.2700 0001340  86.8377 273.2777 15.31697512289468
STARLINK-2285           
1 48019U 21024AU  26166.28079009  .00001500  00000+0  60070-4 0  9999
2 48019  53.1596 212.8789 0001239 105.0463 255.0675 15.31707038289873
STARLINK-2298           
1 48022U 21024AX  26165.88547855  .00065435  00000+0  10736-2 0  9996
2 48022  53.1214 231.1341 0005663 340.5562  19.5231 15.51835559289630
STARLINK-2292           
1 48023U 21024AY  26165.88808468  .00054062  00000+0  11820-2 0  9996
2 48023  53.1174 235.2129 0005151 338.2634  21.8153 15.43650135289579
STARLINK-2299           
1 48029U 21024BE  26166.25002315  .01017833  00000+0  99216-2 0  9992
2 48029  53.1152 228.1493 0001198  93.1281  36.9515 15.63337864  5936
STARLINK-2404           
1 48093U 21027B   26165.96864931  .00001210  00000+0  50725-4 0  9998
2 48093  53.1618  62.3852 0001341  97.9498 262.1655 15.31709984287563
STARLINK-2412           
1 48094U 21027C   26166.01804364  .00002600  00000+0  95460-4 0  9999
2 48094  53.1612  72.9709 0001291  85.4903 274.6246 15.31718975287422
STARLINK-2414           
1 48095U 21027D   26166.06461983  .00002127  00000+0  80263-4 0  9990
2 48095  53.1614  72.4749 0001206  83.7544 276.3594 15.31710816287445
