OBJECT_NAME,OBJECT_ID,EPOCH,MEAN_MOTION,ECCENTRICITY,INCLINATION,RA_OF_ASC_NODE,ARG_OF_PERICENTER,MEAN_ANOMALY,EPHEMERIS_TYPE,CLASSIFICATION_TYPE,NORAD_CAT_ID,ELEMENT_SET_NO,REV_AT_EPOCH,BSTAR,MEAN_MOTION_DOT,MEAN_MOTION_DDOT
STARLINK-2336,2021-021V,2026-06-15T07:23:39.969600,15.53558699,.00052906,53.1526,175.5846,3.3271,356.7774,0,U,47879,999,29135,.98945198E-3,.6414E-3,0
STARLINK-2342,2021-021Z,2026-06-15T06:00:02.000160,15.80582814,.00016306,53.1531,157.7860,94.1709,100.0618,0,U,47883,999,588,.223959E-3,.43139E-3,0
STARLINK-2343,2021-021AA,2026-06-15T06:28:46.055136,15.31703132,.00011442,53.1564,187.0737,89.0064,271.1068,0,U,47884,999,29100,.20696212E-3,.6063E-4,0
STARLINK-2346,2021-021AD,2026-06-15T06:48:53.863200,15.31703485,.00013407,53.1570,186.9679,95.7753,264.3401,0,U,47887,999,29101,.13885813E-4,.66E-6,0
STARLINK-2354,2021-021AL,2026-06-15T05:42:46.449504,15.34024381,.00016138,53.1497,174.0402,53.9076,306.2076,0,U,47894,999,29113,.10803948E-2,.35869E-3,0
STARLINK-2355,2021-021AM,2026-06-15T06:31:04.781568,15.31677378,.00009677,53.1576,174.2035,86.4761,273.6351,0,U,47895,999,29117,.16342283E-3,.4706E-4,0
STARLINK-2356,2021-021AN,2026-06-15T07:22:27.503328,15.31697482,.00012801,53.1594,186.8436,100.8721,259.2425,0,U,47896,999,29097,-.17283656E-4,-.901E-5,0
STARLINK-2358,2021-021AQ,2026-06-15T06:10:54.764256,15.31705241,.00014347,53.1594,174.1982,90.5933,269.5233,0,U,47898,999,29114,.2100526E-4,.287E-5,0
STARLINK-2361,2021-021AT,2026-06-15T05:34:32.592288,15.38770395,.00052877,53.1561,159.5375,22.5838,337.5398,0,U,47901,999,29139,.91563604E-3,.354E-3,0
STARLINK-2363,2021-021AV,2026-06-15T06:00:02.000160,15.94103701,.00021329,53.1493,127.1573,164.7924,112.2355,0,U,47903,999,596,.84087584E-3,.315885E-2,.49827464E-4
STARLINK-2364,2021-021AW,2026-06-15T05:26:15.025056,15.31698663,.00012993,53.1593,161.5154,125.7303,234.3819,0,U,47904,999,29135,-.7822884E-5,-.608E-5,0
STARLINK-2367,2021-021AZ,2026-06-15T07:02:20.834016,15.31704382,.0001429,53.1607,187.0606,91.4991,268.6174,0,U,47907,999,29097,.8084618E-5,-.114E-5,0
STARLINK-2370,2021-021BC,2026-06-15T05:57:30.398400,15.31722709,.00010533,53.1577,174.2775,81.6816,278.4305,0,U,47910,999,29120,-.14438576E-3,-.4846E-4,0
STARLINK-2371,2021-021BD,2026-06-15T06:55:37.835904,15.31696827,.00014221,53.1589,186.9524,97.1258,262.9905,0,U,47911,999,29086,.13106136E-3,.3703E-4,0
STARLINK-2378,2021-021BJ,2026-06-15T05:32:59.021952,15.31693654,.00013647,53.1581,161.6566,99.8187,260.2969,0,U,47916,999,29135,.31202086E-4,.603E-5,0
STARLINK-2405,2021-021BM,2026-06-15T07:49:17.248512,15.31706558,.00011422,53.1581,186.7554,78.3459,281.7671,0,U,47919,999,29100,.20446057E-4,.27E-5,0
STARLINK-1647,2021-024B,2026-06-14T22:24:02.949408,15.31688149,.000138,53.1601,240.0048,81.5414,278.5743,0,U,47978,999,28952,.41923E-4,.935E-5,0
STARLINK-2303,2021-024E,2026-06-14T22:16:51.205152,15.31691972,.0001369,53.1597,240.0922,97.8301,262.2856,0,U,47981,999,28952,.39102E-4,.848E-5,0
STARLINK-2273,2021-024S,2026-06-15T07:02:00.551616,15.49287859,.00059574,53.1490,194.5372,358.9541,1.1455,0,U,47993,999,29018,.10652814E-2,.59238E-3,0
STARLINK-2266,2021-024W,2026-06-14T10:02:41.944128,15.31698202,.00011766,53.1592,216.7884,74.2426,285.8705,0,U,47997,999,28980,.4957656E-4,.1174E-4,0
STARLINK-2270,2021-024Z,2026-06-15T04:49:15.099744,15.42544372,.00056448,53.1261,144.4970,30.9380,329.1957,0,U,48000,999,29082,.10712493E-2,.47119E-3,0
STARLINK-2153,2021-024AJ,2026-06-15T07:39:29.262816,15.31701426,.0001273,53.1593,215.2319,79.9655,280.1490,0,U,48009,999,28985,.22141443E-4,.322E-5,0
STARLINK-2226,2021-024AK,2026-06-14T22:30:47.507904,15.31697512,.000134,53.1611,240.2700,86.8377,273.2777,0,U,48010,999,28946,-.55042E-4,-.2073E-4,0
STARLINK-2285,2021-024AU,2026-06-15T06:44:20.263776,15.31707038,.00012396,53.1596,212.8789,105.0463,255.0675,0,U,48019,999,28987,.60069844E-4,.15E-4,0
STARLINK-2298,2021-024AX,2026-06-14T21:15:05.346720,15.51835559,.0005663,53.1214,231.1341,340.5562,19.5231,0,U,48022,999,28963,.10736E-2,.65435E-3,0
STARLINK-2292,2021-024AY,2026-06-14T21:18:50.516352,15.43650135,.0005151,53.1174,235.2129,338.2634,21.8153,0,U,48023,999,28957,.1182E-2,.54062E-3,0
STARLINK-2299,2021-024BE,2026-06-15T06:00:02.000160,15.63337864,.00011984,53.1152,228.1493,93.1281,36.9515,0,U,48029,999,593,.99215746E-2,.1017833E-1,0
STARLINK-2404,2021-027B,2026-06-14T23:14:51.300384,15.31709984,.0001341,53.1618,62.3852,97.9498,262.1655,0,U,48093,999,28756,.50725E-4,.121E-4,0
STARLINK-2412,2021-027C,2026-06-15T00:25:58.970496,15.31718975,.00012914,53.1612,72.9709,85.4903,274.6246,0,U,48094,999,28742,.95460456E-4,.26E-4,0
STARLINK-2414,2021-027D,2026-06-15T01:33:03.153312,15.31710816,.00012065,53.1614,72.4749,83.7544,276.3594,0,U,48095,999,28744,.80262715E-4,.2127E-4,0
